ONEWEB-0379             
1 49305U 21090AC  25200.47925303  .00000024  00000+0  29561-4 0  9997
2 49305  87.9052 355.9030 0001921  97.8662 262.2686 13.14503695183854
ONEWEB-0380             
1 49306U 21090AD  25200.50104201  .00000058  00000+0  11322-3 0  9990
2 49306  87.9214  11.1091 0001671  93.4086 266.7238 13.19725899182541
ONEWEB-0381             
1 49307U 21090AE  25200.43448140  .00000016  00000+0  66795-5 0  9996
2 49307  87.9286 340.7273 0001712 104.7816 255.3507 13.20771104185905
ONEWEB-0382             
1 49308U 21090AF  25200.42186553  .00000092  00000+0  19420-3 0  9998
2 49308  87.9278 340.7229 0001869 108.6611 251.4726 13.20770516185891
ONEWEB-0383             
1 49309U 21090AG  25200.47290700 -.00000096  00000+0 -29319-3 0  9998
2 49309  87.9052 355.8844 0001983 100.3189 259.8165 13.14503818183886
ONEWEB-0384             
1 49310U 21090AH  25200.41760141 -.00000013  00000+0 -62924-4 0  9994
2 49310  87.9289 340.7423 0002099 113.4124 246.7230 13.20786833185909
ONEWEB-0385             
1 49311U 21090AJ  25200.64123413  .00000097  00000+0  20667-3 0  9992
2 49311  87.9274 340.6965 0001903 102.1498 257.9848 13.20771834185900
ONEWEB-0386             
1 49312U 21090AK  25200.43133010  .00000121  00000+0  26563-3 0  9993
2 49312  87.9275 340.7082 0001969 105.9813 254.1537 13.20772302185890
